start=new Date('2022-03-29T00:00:00.000Z').valueOf();
sats=[{"EPHEMERIS_TYPE":"0","SEMIMAJOR_AXIS":"6925.327","MEAN_ANOMALY":"302.9638","COUNTRY_CODE":"US","BSTAR":"0.00024142000000","SITE":"AFETR","APOAPSIS":"548.378","MEAN_ELEMENT_THEORY":"SGP4","RA_OF_ASC_NODE":"20.7390","GP_ID":"199913961","CENTER_NAME":"EARTH","TLE_LINE2":"2 45212  53.0564  20.7390 0001712  57.1515 302.9638 15.06406899116811","EPOCH":"2022-03-28T12:37:17.271840","REF_FRAME":"TEME","MEAN_MOTION_DDOT":"0.0000000000000","OBJECT_ID":"2020-012AL","MEAN_MOTION_DOT":"0.00003317","MEAN_MOTION":"15.06406899","CLASSIFICATION_TYPE":"U","NORAD_CAT_ID":"45212","RCS_SIZE":"LARGE","OBJECT_TYPE":"PAYLOAD","DECAY_DATE":null,"ARG_OF_PERICENTER":"57.1515","TIME_SYSTEM":"UTC","FILE":"3378017","PERIOD":"95.592","LAUNCH_DATE":"2020-02-17","ECCENTRICITY":"0.00017120","TLE_LINE1":"1 45212U 20012AL  22087.52589435  .00003317  00000-0  24142-3 0  9999","REV_AT_EPOCH":"11681","OBJECT_NAME":"STARLINK-1231","INCLINATION":"53.0564","PERIAPSIS":"546.007","ELEMENT_SET_NO":"999"},{"PERIOD":"93.744","LAUNCH_DATE":"2020-02-17","ECCENTRICITY":"0.00027130","TLE_LINE1":"1 45213U 20012AM  22087.92195260  .00065501  00000-0  18306-2 0  9990","REV_AT_EPOCH":"11799","OBJECT_NAME":"STARLINK-1232","INCLINATION":"53.0611","PERIAPSIS":"455.797","ELEMENT_SET_NO":"999","CLASSIFICATION_TYPE":"U","NORAD_CAT_ID":"45213","RCS_SIZE":"LARGE","OBJECT_TYPE":"PAYLOAD","ARG_OF_PERICENTER":"33.1520","DECAY_DATE":null,"TIME_SYSTEM":"UTC","FILE":"3378342","TLE_LINE2":"2 45213  53.0611   6.3290 0002713  33.1520 326.9651 15.36101867117997","EPOCH":"2022-03-28T22:07:36.704640","REF_FRAME":"TEME","MEAN_MOTION_DDOT":"0.0000000000000","OBJECT_ID":"2020-012AM","MEAN_MOTION":"15.36101867","MEAN_MOTION_DOT":"0.00065501","EPHEMERIS_TYPE":"0","SEMIMAJOR_AXIS":"6835.787","MEAN_ANOMALY":"326.9651","BSTAR":"0.00183060000000","COUNTRY_CODE":"US","SITE":"AFETR","APOAPSIS":"459.506","MEAN_ELEMENT_THEORY":"SGP4","RA_OF_ASC_NODE":"6.3290","GP_ID":"199941888","CENTER_NAME":"EARTH"},{"CENTER_NAME":"EARTH","GP_ID":"199913615","RA_OF_ASC_NODE":"20.8647","MEAN_ELEMENT_THEORY":"SGP4","APOAPSIS":"548.348","SITE":"AFETR","COUNTRY_CODE":"US","BSTAR":"0.00013618000000","MEAN_ANOMALY":"302.1091","SEMIMAJOR_AXIS":"6925.328","EPHEMERIS_TYPE":"0","MEAN_MOTION":"15.06406784","MEAN_MOTION_DOT":"0.00001748","OBJECT_ID":"2020-012AN","MEAN_MOTION_DDOT":"0.0000000000000","REF_FRAME":"TEME","EPOCH":"2022-03-28T12:00:08.239104","TLE_LINE2":"2 45214  53.0579  20.8647 0001668  58.0060 302.1091 15.06406784116807","FILE":"3378017","TIME_SYSTEM":"UTC","ARG_OF_PERICENTER":"58.0060","DECAY_DATE":null,"OBJECT_TYPE":"PAYLOAD","NORAD_CAT_ID":"45214","RCS_SIZE":"LARGE","CLASSIFICATION_TYPE":"U","ELEMENT_SET_NO":"999","PERIAPSIS":"546.038","INCLINATION":"53.0579","OBJECT_NAME":"STARLINK-1233","REV_AT_EPOCH":"11680","TLE_LINE1":"1 45214U 20012AN  22087.50009536  .00001748  00000-0  13618-3 0  9990","ECCENTRICITY":"0.00016680","LAUNCH_DATE":"2020-02-17","PERIOD":"95.592"},{"MEAN_ELEMENT_THEORY":"SGP4","APOAPSIS":"548.337","RA_OF_ASC_NODE":"19.6809","CENTER_NAME":"EARTH","GP_ID":"199940386","EPHEMERIS_TYPE":"0","SEMIMAJOR_AXIS":"6925.323","MEAN_ANOMALY":"300.0049","SITE":"AFETR","BSTAR":"0.00025442000000","COUNTRY_CODE":"US","OBJECT_ID":"2020-012AP","MEAN_MOTION":"15.06408502","MEAN_MOTION_DOT":"0.00003511","TLE_LINE2":"2 45215  53.0565  19.6809 0001660  60.1105 300.0049 15.06408502117727","EPOCH":"2022-03-28T18:16:58.220544","MEAN_MOTION_DDOT":"0.0000000000000","REF_FRAME":"TEME","TIME_SYSTEM":"UTC","FILE":"3378342","NORAD_CAT_ID":"45215","RCS_SIZE":"LARGE","CLASSIFICATION_TYPE":"U","ARG_OF_PERICENTER":"60.1105","DECAY_DATE":null,"OBJECT_TYPE":"PAYLOAD","INCLINATION":"53.0565","OBJECT_NAME":"STARLINK-1245","PERIAPSIS":"546.038","ELEMENT_SET_NO":"999","PERIOD":"95.592","LAUNCH_DATE":"2020-02-17","ECCENTRICITY":"0.00016600","REV_AT_EPOCH":"11772","TLE_LINE1":"1 45215U 20012AP  22087.76178496  .00003511  00000-0  25442-3 0  9999"},{"ELEMENT_SET_NO":"999","PERIAPSIS":"546.085","OBJECT_NAME":"STARLINK-1271","INCLINATION":"53.0570","TLE_LINE1":"1 45217U 20012AR  22087.53695144  .00002236  00000-0  16892-3 0  9992","REV_AT_EPOCH":"11775","ECCENTRICITY":"0.00015760","LAUNCH_DATE":"2020-02-17","PERIOD":"95.591","FILE":"3377801","TIME_SYSTEM":"UTC","OBJECT_TYPE":"PAYLOAD","ARG_OF_PERICENTER":"58.4177","DECAY_DATE":null,"CLASSIFICATION_TYPE":"U","NORAD_CAT_ID":"45217","RCS_SIZE":"LARGE","MEAN_MOTION_DOT":"0.00002236","MEAN_MOTION":"15.06412074","OBJECT_ID":"2020-012AR","REF_FRAME":"TEME","MEAN_MOTION_DDOT":"0.0000000000000","EPOCH":"2022-03-28T12:53:12.604416","TLE_LINE2":"2 45217  53.0570  20.6971 0001576  58.4177 301.6965 15.06412074117758","GP_ID":"199902911","CENTER_NAME":"EARTH","RA_OF_ASC_NODE":"20.6971","APOAPSIS":"548.268","MEAN_ELEMENT_THEORY":"SGP4","BSTAR":"0.00016892000000","COUNTRY_CODE":"US","SITE":"AFETR","MEAN_ANOMALY":"301.6965","SEMIMAJOR_AXIS":"6925.312","EPHEMERIS_TYPE":"0"},{"OBJECT_ID":"2020-012AT","MEAN_MOTION":"15.06400641","MEAN_MOTION_DOT":"0.00001536","TLE_LINE2":"2 45219  53.0565 358.9156 0001624  59.1564 300.9585 15.06400641118105","EPOCH":"2022-03-28T22:23:48.561216","REF_FRAME":"TEME","MEAN_MOTION_DDOT":"0.0000000000000","APOAPSIS":"548.336","MEAN_ELEMENT_THEORY":"SGP4","RA_OF_ASC_NODE":"358.9156","GP_ID":"199941388","CENTER_NAME":"EARTH","EPHEMERIS_TYPE":"0","SEMIMAJOR_AXIS":"6925.347","MEAN_ANOMALY":"300.9585","BSTAR":"0.00012197000000","COUNTRY_CODE":"US","SITE":"AFETR","OBJECT_NAME":"STARLINK-1187","INCLINATION":"53.0565","PERIAPSIS":"546.087","ELEMENT_SET_NO":"999","PERIOD":"95.592","LAUNCH_DATE":"2020-02-17","ECCENTRICITY":"0.00016240","TLE_LINE1":"1 45219U 20012AT  22087.93320094  .00001536  00000-0  12197-3 0  9993","REV_AT_EPOCH":"11810","TIME_SYSTEM":"UTC","FILE":"3378342","CLASSIFICATION_TYPE":"U","NORAD_CAT_ID":"45219","RCS_SIZE":"LARGE","OBJECT_TYPE":"PAYLOAD","DECAY_DATE":null,"ARG_OF_PERICENTER":"59.1564"},{"MEAN_MOTION":"15.06407524","MEAN_MOTION_DOT":"0.00004357","OBJECT_ID":"2020-012AV","MEAN_MOTION_DDOT":"0.0000000000000","REF_FRAME":"TEME","TLE_LINE2":"2 45221  53.0558 359.2051 0001687  67.3505 292.7662 15.06407524118081","EPOCH":"2022-03-28T20:53:34.367424","RA_OF_ASC_NODE":"359.2051","CENTER_NAME":"EARTH","GP_ID":"199942139","MEAN_ELEMENT_THEORY":"SGP4","APOAPSIS":"548.359","MEAN_ANOMALY":"292.7662","SITE":"AFETR","COUNTRY_CODE":"US","BSTAR":"0.00031113000000","EPHEMERIS_TYPE":"0","SEMIMAJOR_AXIS":"6925.325","ELEMENT_SET_NO":"999","INCLINATION":"53.0558","OBJECT_NAME":"STARLINK-1189","PERIAPSIS":"546.022","ECCENTRICITY":"0.00016870","REV_AT_EPOCH":"11808","TLE_LINE1":"1 45221U 20012AV  22087.87053666  .00004357  00000-0  31113-3 0  9990","PERIOD":"95.592","LAUNCH_DATE":"2020-02-17","FILE":"3378342","TIME_SYSTEM":"UTC","RCS_SIZE":"LARGE","NORAD_CAT_ID":"45221","CLASSIFICATION_TYPE":"U","DECAY_DATE":null,"ARG_OF_PERICENTER":"67.3505","OBJECT_TYPE":"PAYLOAD"},{"RCS_SIZE":"LARGE","NORAD_CAT_ID":"45222","CLASSIFICATION_TYPE":"U","DECAY_DATE":null,"ARG_OF_PERICENTER":"62.0990","OBJECT_TYPE":"PAYLOAD","TIME_SYSTEM":"UTC","FILE":"3377801","PERIOD":"95.591","LAUNCH_DATE":"2020-02-17","ECCENTRICITY":"0.00019140","REV_AT_EPOCH":"11802","TLE_LINE1":"1 45222U 20012AW  22087.47982737  .00004486  00000-0  31980-3 0  9992","INCLINATION":"53.0546","OBJECT_NAME":"STARLINK-1191","PERIAPSIS":"545.854","ELEMENT_SET_NO":"999","EPHEMERIS_TYPE":"0","SEMIMAJOR_AXIS":"6925.315","MEAN_ANOMALY":"298.0193","SITE":"AFETR","COUNTRY_CODE":"US","BSTAR":"0.00031980000000","MEAN_ELEMENT_THEORY":"SGP4","APOAPSIS":"548.505","RA_OF_ASC_NODE":"0.9503","CENTER_NAME":"EARTH","GP_ID":"199903161","TLE_LINE2":"2 45222  53.0546   0.9503 0001914  62.0990 298.0193 15.06411072118029","EPOCH":"2022-03-28T11:30:57.084768","MEAN_MOTION_DDOT":"0.0000000000000","REF_FRAME":"TEME","OBJECT_ID":"2020-012AW","MEAN_MOTION":"15.06411072","MEAN_MOTION_DOT":"0.00004486"},{"OBJECT_TYPE":"PAYLOAD","DECAY_DATE":null,"ARG_OF_PERICENTER":"59.1106","CLASSIFICATION_TYPE":"U","RCS_SIZE":"LARGE","NORAD_CAT_ID":"45223","FILE":"3378342","TIME_SYSTEM":"UTC","TLE_LINE1":"1 45223U 20012AX  22087.90002575 -.00000539  00000-0 -17257-4 0  9993","REV_AT_EPOCH":"11809","ECCENTRICITY":"0.00017270","LAUNCH_DATE":"2020-02-17","PERIOD":"95.592","ELEMENT_SET_NO":"999","PERIAPSIS":"546.026","OBJECT_NAME":"STARLINK-1212","INCLINATION":"53.0554","COUNTRY_CODE":"US","BSTAR":"-0.00001725700000","SITE":"AFETR","MEAN_ANOMALY":"301.0052","SEMIMAJOR_AXIS":"6925.357","EPHEMERIS_TYPE":"0","GP_ID":"199941137","CENTER_NAME":"EARTH","RA_OF_ASC_NODE":"359.0755","APOAPSIS":"548.418","MEAN_ELEMENT_THEORY":"SGP4","REF_FRAME":"TEME","MEAN_MOTION_DDOT":"0.0000000000000","EPOCH":"2022-03-28T21:36:02.224800","TLE_LINE2":"2 45223  53.0554 359.0755 0001727  59.1106 301.0052 15.06397086118098","MEAN_MOTION_DOT":"-0.00000539","MEAN_MOTION":"15.06397086","OBJECT_ID":"2020-012AX"},{"MEAN_MOTION_DOT":"0.00061863","MEAN_MOTION":"15.76782055","OBJECT_ID":"2020-012AY","REF_FRAME":"TEME","MEAN_MOTION_DDOT":"0.0000000000000","TLE_LINE2":"2 45224  53.0440 220.9283 0004522 350.9989   9.0948 15.76782055119880","EPOCH":"2022-03-28T15:54:59.292864","RA_OF_ASC_NODE":"220.9283","GP_ID":"199941889","CENTER_NAME":"EARTH","APOAPSIS":"342.605","MEAN_ELEMENT_THEORY":"SGP4","MEAN_ANOMALY":"9.0948","BSTAR":"0.00037811000000","COUNTRY_CODE":"US","SITE":"AFETR","EPHEMERIS_TYPE":"0","SEMIMAJOR_AXIS":"6717.702","ELEMENT_SET_NO":"999","OBJECT_NAME":"STARLINK-1214","INCLINATION":"53.0440","PERIAPSIS":"336.529","ECCENTRICITY":"0.00045220","TLE_LINE1":"1 45224U 20012AY  22087.66318626  .00061863  00000-0  37811-3 0  9996","REV_AT_EPOCH":"11988","PERIOD":"91.325","LAUNCH_DATE":"2020-02-17","FILE":"3378342","TIME_SYSTEM":"UTC","CLASSIFICATION_TYPE":"U","NORAD_CAT_ID":"45224","RCS_SIZE":"LARGE","OBJECT_TYPE":"PAYLOAD","DECAY_DATE":null,"ARG_OF_PERICENTER":"350.9989"}];
